CCSDS_OMM_VERS = 2.0
CREATION_DATE  = 
ORIGINATOR     = 

OBJECT_NAME    = UNKNOWN
OBJECT_ID      = 
CENTER_NAME    = EARTH
REF_FRAME      = TEME
TIME_SYSTEM    = UTC
MEAN_ELEMENT_THEORY = SGP/SGP4

EPOCH          = 2025-10-27T12:32:58.356096
MEAN_MOTION    = 2.99852356
ECCENTRICITY   = .6568205
INCLINATION    = 2.2106
RA_OF_ASC_NODE = 272.2318
ARG_OF_PERICENTER = 2.4572
MEAN_ANOMALY   = 106.9110

EPHEMERIS_TYPE = 0
CLASSIFICATION_TYPE = U
NORAD_CAT_ID   = 84932
ELEMENT_SET_NO = 999
REV_AT_EPOCH   = 13039
BSTAR          = .87639E-2
MEAN_MOTION_DOT = .1048E-4
MEAN_MOTION_DDOT = 0

CCSDS_OMM_VERS = 2.0
CREATION_DATE  = 
ORIGINATOR     = 

OBJECT_NAME    = UNKNOWN
OBJECT_ID      = 
CENTER_NAME    = EARTH
REF_FRAME      = TEME
TIME_SYSTEM    = UTC
MEAN_ELEMENT_THEORY = SGP/SGP4

EPOCH          = 2025-10-27T09:43:57.215712
MEAN_MOTION    = 14.40919771
ECCENTRICITY   = .0046211
INCLINATION    = 98.4158
RA_OF_ASC_NODE = 272.1544
ARG_OF_PERICENTER = 302.9340
MEAN_ANOMALY   = 209.5051

EPHEMERIS_TYPE = 0
CLASSIFICATION_TYPE = U
NORAD_CAT_ID   = 85004
ELEMENT_SET_NO = 999
REV_AT_EPOCH   = 62422
BSTAR          = .60533E-3
MEAN_MOTION_DOT = .1923E-4
MEAN_MOTION_DDOT = 0

CCSDS_OMM_VERS = 2.0
CREATION_DATE  = 
ORIGINATOR     = 

OBJECT_NAME    = UNKNOWN
OBJECT_ID      = 
CENTER_NAME    = EARTH
REF_FRAME      = TEME
TIME_SYSTEM    = UTC
MEAN_ELEMENT_THEORY = SGP/SGP4

EPOCH          = 2025-10-25T13:54:18.523584
MEAN_MOTION    = 13.74894221
ECCENTRICITY   = .002766
INCLINATION    = 99.2507
RA_OF_ASC_NODE = 161.9637
ARG_OF_PERICENTER = 18.6065
MEAN_ANOMALY   = 10.8836

EPHEMERIS_TYPE = 0
CLASSIFICATION_TYPE = U
NORAD_CAT_ID   = 85010
ELEMENT_SET_NO = 999
REV_AT_EPOCH   = 59730
BSTAR          = .14906E-2
MEAN_MOTION_DOT = .1382E-4
MEAN_MOTION_DDOT = 0

CCSDS_OMM_VERS = 2.0
CREATION_DATE  = 
ORIGINATOR     = 

OBJECT_NAME    = UNKNOWN
OBJECT_ID      = 
CENTER_NAME    = EARTH
REF_FRAME      = TEME
TIME_SYSTEM    = UTC
MEAN_ELEMENT_THEORY = SGP/SGP4

EPOCH          = 2025-10-27T05:58:58.328544
MEAN_MOTION    = 14.62200411
ECCENTRICITY   = .0014507
INCLINATION    = 74.0463
RA_OF_ASC_NODE = 127.1659
ARG_OF_PERICENTER = 42.3989
MEAN_ANOMALY   = 317.8295

EPHEMERIS_TYPE = 0
CLASSIFICATION_TYPE = U
NORAD_CAT_ID   = 85015
ELEMENT_SET_NO = 999
REV_AT_EPOCH   = 63581
BSTAR          = .15601E-3
MEAN_MOTION_DOT = .757E-5
MEAN_MOTION_DDOT = 0

CCSDS_OMM_VERS = 2.0
CREATION_DATE  = 
ORIGINATOR     = 

OBJECT_NAME    = UNKNOWN
OBJECT_ID      = 
CENTER_NAME    = EARTH
REF_FRAME      = TEME
TIME_SYSTEM    = UTC
MEAN_ELEMENT_THEORY = SGP/SGP4

EPOCH          = 2025-10-25T12:23:59.743680
MEAN_MOTION    = 14.70609739
ECCENTRICITY   = .0004543
INCLINATION    = 99.8531
RA_OF_ASC_NODE = 303.8722
ARG_OF_PERICENTER = 88.9706
MEAN_ANOMALY   = 63.4699

EPHEMERIS_TYPE = 0
CLASSIFICATION_TYPE = U
NORAD_CAT_ID   = 85023
ELEMENT_SET_NO = 999
REV_AT_EPOCH   = 62173
BSTAR          = .58499E-2
MEAN_MOTION_DOT = .357E-3
MEAN_MOTION_DDOT = 0

CCSDS_OMM_VERS = 2.0
CREATION_DATE  = 
ORIGINATOR     = 

OBJECT_NAME    = UNKNOWN
OBJECT_ID      = 
CENTER_NAME    = EARTH
REF_FRAME      = TEME
TIME_SYSTEM    = UTC
MEAN_ELEMENT_THEORY = SGP/SGP4

EPOCH          = 2025-10-27T07:03:32.696352
MEAN_MOTION    = 13.74214328
ECCENTRICITY   = .0181344
INCLINATION    = 66.0414
RA_OF_ASC_NODE = 215.2427
ARG_OF_PERICENTER = 214.9091
MEAN_ANOMALY   = 143.9974

EPHEMERIS_TYPE = 0
CLASSIFICATION_TYPE = U
NORAD_CAT_ID   = 85027
ELEMENT_SET_NO = 999
REV_AT_EPOCH   = 59823
BSTAR          = .21229E-3
MEAN_MOTION_DOT = .146E-5
MEAN_MOTION_DDOT = 0

CCSDS_OMM_VERS = 2.0
CREATION_DATE  = 
ORIGINATOR     = 

OBJECT_NAME    = UNKNOWN
OBJECT_ID      = 
CENTER_NAME    = EARTH
REF_FRAME      = TEME
TIME_SYSTEM    = UTC
MEAN_ELEMENT_THEORY = SGP/SGP4

EPOCH          = 2025-10-27T03:52:15.736800
MEAN_MOTION    = 13.42269710
ECCENTRICITY   = .0102706
INCLINATION    = 102.2548
RA_OF_ASC_NODE = 255.8104
ARG_OF_PERICENTER = 101.2850
MEAN_ANOMALY   = 259.9832

EPHEMERIS_TYPE = 0
CLASSIFICATION_TYPE = U
NORAD_CAT_ID   = 85047
ELEMENT_SET_NO = 999
REV_AT_EPOCH   = 57040
BSTAR          = .25529E-1
MEAN_MOTION_DOT = .14816E-3
MEAN_MOTION_DDOT = 0

CCSDS_OMM_VERS = 2.0
CREATION_DATE  = 
ORIGINATOR     = 

OBJECT_NAME    = UNKNOWN
OBJECT_ID      = 
CENTER_NAME    = EARTH
REF_FRAME      = TEME
TIME_SYSTEM    = UTC
MEAN_ELEMENT_THEORY = SGP/SGP4

EPOCH          = 2025-10-26T20:57:31.508640
MEAN_MOTION    = 12.76616965
ECCENTRICITY   = .0281616
INCLINATION    = 102.3966
RA_OF_ASC_NODE = 279.4219
ARG_OF_PERICENTER = 286.4413
MEAN_ANOMALY   = 101.0955

EPHEMERIS_TYPE = 0
CLASSIFICATION_TYPE = U
NORAD_CAT_ID   = 85061
ELEMENT_SET_NO = 999
REV_AT_EPOCH   = 54980
BSTAR          = .16332E-1
MEAN_MOTION_DOT = .4129E-4
MEAN_MOTION_DDOT = 0

CCSDS_OMM_VERS = 2.0
CREATION_DATE  = 
ORIGINATOR     = 

OBJECT_NAME    = UNKNOWN
OBJECT_ID      = 
CENTER_NAME    = EARTH
REF_FRAME      = TEME
TIME_SYSTEM    = UTC
MEAN_ELEMENT_THEORY = SGP/SGP4

EPOCH          = 2025-10-26T19:17:46.672224
MEAN_MOTION    = 14.40650173
ECCENTRICITY   = .0012684
INCLINATION    = 74.0447
RA_OF_ASC_NODE = 309.5556
ARG_OF_PERICENTER = 196.1523
MEAN_ANOMALY   = 344.8511

EPHEMERIS_TYPE = 0
CLASSIFICATION_TYPE = U
NORAD_CAT_ID   = 85100
ELEMENT_SET_NO = 999
REV_AT_EPOCH   = 62658
BSTAR          = .1676E-3
MEAN_MOTION_DOT = .509E-5
MEAN_MOTION_DDOT = 0

CCSDS_OMM_VERS = 2.0
CREATION_DATE  = 
ORIGINATOR     = 

OBJECT_NAME    = UNKNOWN
OBJECT_ID      = 
CENTER_NAME    = EARTH
REF_FRAME      = TEME
TIME_SYSTEM    = UTC
MEAN_ELEMENT_THEORY = SGP/SGP4

EPOCH          = 2025-10-26T13:00:06.552864
MEAN_MOTION    = 13.72808573
ECCENTRICITY   = .0010524
INCLINATION    = 100.0555
RA_OF_ASC_NODE = 38.0849
ARG_OF_PERICENTER = 133.3976
MEAN_ANOMALY   = 247.6402

EPHEMERIS_TYPE = 0
CLASSIFICATION_TYPE = U
NORAD_CAT_ID   = 85106
ELEMENT_SET_NO = 999
REV_AT_EPOCH   = 59659
BSTAR          = .87064E-3
MEAN_MOTION_DOT = .753E-5
MEAN_MOTION_DDOT = 0

CCSDS_OMM_VERS = 2.0
CREATION_DATE  = 
ORIGINATOR     = 

OBJECT_NAME    = UNKNOWN
OBJECT_ID      = 
CENTER_NAME    = EARTH
REF_FRAME      = TEME
TIME_SYSTEM    = UTC
MEAN_ELEMENT_THEORY = SGP/SGP4

EPOCH          = 2025-10-27T10:29:14.227008
MEAN_MOTION    = 14.75732287
ECCENTRICITY   = .0009331
INCLINATION    = 98.4052
RA_OF_ASC_NODE = 162.5500
ARG_OF_PERICENTER = 304.2949
MEAN_ANOMALY   = 55.7375

EPHEMERIS_TYPE = 0
CLASSIFICATION_TYPE = U
NORAD_CAT_ID   = 85151
ELEMENT_SET_NO = 999
REV_AT_EPOCH   = 47269
BSTAR          = .30156E-2
MEAN_MOTION_DOT = .2065E-3
MEAN_MOTION_DDOT = 0

CCSDS_OMM_VERS = 2.0
CREATION_DATE  = 
ORIGINATOR     = 

OBJECT_NAME    = UNKNOWN
OBJECT_ID      = 
CENTER_NAME    = EARTH
REF_FRAME      = TEME
TIME_SYSTEM    = UTC
MEAN_ELEMENT_THEORY = SGP/SGP4

EPOCH          = 2025-10-26T04:13:34.657248
MEAN_MOTION    = 13.71425155
ECCENTRICITY   = .0217376
INCLINATION    = 99.8538
RA_OF_ASC_NODE = 78.8796
ARG_OF_PERICENTER = 76.2132
MEAN_ANOMALY   = 99.4861

EPHEMERIS_TYPE = 0
CLASSIFICATION_TYPE = U
NORAD_CAT_ID   = 85210
ELEMENT_SET_NO = 999
REV_AT_EPOCH   = 59563
BSTAR          = .8186E-3
MEAN_MOTION_DOT = .825E-5
MEAN_MOTION_DDOT = 0

