UNKNOWN                 
1 84932U          25300.52289764  .00001048  00000+0  87639-2 0  9996
2 84932   2.2106 272.2318 6568205   2.4572 106.9110  2.99852356130399
UNKNOWN                 
1 85004U          25300.40552333  .00001923  00000+0  60533-3 0  9996
2 85004  98.4158 272.1544 0046211 302.9340 209.5051 14.40919771624225
UNKNOWN                 
1 85010U          25298.57938106  .00001382  00000+0  14906-2 0  9994
2 85010  99.2507 161.9637 0027660  18.6065  10.8836 13.74894221597309
UNKNOWN                 
1 85015U          25300.24928621  .00000757  00000+0  15601-3 0  9997
2 85015  74.0463 127.1659 0014507  42.3989 317.8295 14.62200411635817
UNKNOWN                 
1 85023U          25298.51666370  .00035700  00000+0  58499-2 0  9999
2 85023  99.8531 303.8722 0004543  88.9706  63.4699 14.70609739621736
UNKNOWN                 
1 85027U          25300.29412843  .00000146  00000+0  21229-3 0  9994
2 85027  66.0414 215.2427 0181344 214.9091 143.9974 13.74214328598234
UNKNOWN                 
1 85047U          25300.16129325  .00014816  00000+0  25529-1 0  9996
2 85047 102.2548 255.8104 0102706 101.2850 259.9832 13.42269710570405
UNKNOWN                 
1 85061U          25299.87328135  .00004129  00000+0  16332-1 0  9995
2 85061 102.3966 279.4219 0281616 286.4413 101.0955 12.76616965549801
UNKNOWN                 
1 85100U          25299.80401241  .00000509  00000+0  16760-3 0  9997
2 85100  74.0447 309.5556 0012684 196.1523 344.8511 14.40650173626587
UNKNOWN                 
1 85106U          25299.54174251  .00000753  00000+0  87064-3 0  9998
2 85106 100.0555  38.0849 0010524 133.3976 247.6402 13.72808573596597
UNKNOWN                 
1 85151U          25300.43697022  .00020650  00000+0  30156-2 0  9992
2 85151  98.4052 162.5500 0009331 304.2949  55.7375 14.75732287472692
UNKNOWN                 
1 85210U          25299.17609557  .00000825  00000+0  81860-3 0  9993
2 85210  99.8538  78.8796 0217376  76.2132  99.4861 13.71425155595631
